STARLINK-1477
1 45754U 20038AA  26092.31598156  .00033666  00000+0  17646-2 0  9994
2 45754  53.0486 105.4681 0003219  47.7947 312.3319 15.15497706320115
